GLOBALSTAR M084         
1 38040U 11080A   24283.76025883 -.00000097  00000+0  35625-4 0  9994
2 38040  51.9993  90.8634 0000673 115.8585 257.3590 12.62268449591046
GLOBALSTAR M080         
1 38041U 11080B   24283.73403198 -.00000094  00000+0  56007-4 0  9995
2 38041  52.0047  92.4626 0000951 122.4704 251.2312 12.62266773591160
GLOBALSTAR M082         
1 38042U 11080C   24283.66775271 -.00000093  00000+0  61967-4 0  9992
2 38042  52.0090  48.0830 0000814  64.1239 308.4166 12.62267375591864
GLOBALSTAR M092         
1 38043U 11080D   24283.87926773 -.00000074  00000+0  16740-3 0  9998
2 38043  52.0064 137.8052 0000730  81.4498 292.8346 12.62267448590344
GLOBALSTAR M090         
1 38044U 11080E   24283.72353199 -.00000108  00000+0 -25009-4 0  9997
2 38044  51.9903  42.0443 0000748  83.4727  62.8427 12.62268238591986
GLOBALSTAR M086         
1 38045U 11080F   24283.64455383 -.00000090  00000+0  77057-4 0  9996
2 38045  51.9916  42.8154 0001628 115.5444 272.3215 12.62267994591924
GLOBALSTAR M097         
1 39072U 13005A   24283.82359479 -.00000053  00000+0  28153-3 0  9996
2 39072  52.0058 316.5701 0000661  85.2858 274.8084 12.62271496539195
GLOBALSTAR M093         
1 39073U 13005B   24283.79678253 -.00000074  00000+0  16853-3 0  9994
2 39073  51.9817 310.3527 0000667  76.5267 283.5674 12.62265258539144
